{
  "type": "FeatureCollection",
  "features": [
    {
      "type": "Feature",
      "properties": {
        "norad_id": 67046,
        "name": "STARLINK-35721",
        "group": "last-30-days",
        "lat": 42.96465047792998,
        "lon": -137.60005273837112,
        "alt_km": 307.17848334952214,
        "timestamp": "2025-12-21T03:56:49.618553+00:00",
        "meta_object_name": "STARLINK-35721",
        "meta_object_id": "2025-294S",
        "meta_epoch": "2025-12-20T20:00:01.999008",
        "meta_mean_motion": 15.87272791,
        "meta_eccentricity": 0.000173,
        "meta_inclination": 43.0004,
        "meta_ra_of_asc_node": 132.6081,
        "meta_arg_of_pericenter": 279.262,
        "meta_mean_anomaly": 78.3453,
        "meta_ephemeris_type": 0,
        "meta_classification_type": "U",
        "meta_norad_cat_id": 67046,
        "meta_element_set_no": 999,
        "meta_rev_at_epoch": 161,
        "meta_bstar": -0.0058298,
        "meta_mean_motion_dot": -0.01383489,
        "meta_mean_motion_ddot": 0,
        "tle_line1": "1 67046U 25294S   25354.83335647 -.01383489  00000+0 -58298-2 0  9994",
        "tle_line2": "2 67046  43.0004 132.6081 0001730 279.2620  78.3453 15.87272791  1613"
      },
      "geometry": {
        "type": "Point",
        "coordinates": [
          -137.60005273837112,
          42.96465047792998
        ]
      }
    },
    {
      "type": "Feature",
      "properties": {
        "norad_id": 67047,
        "name": "STARLINK-35779",
        "group": "last-30-days",
        "lat": 42.85679604162306,
        "lon": -134.14198858930334,
        "alt_km": 307.17583796194776,
        "timestamp": "2025-12-21T03:56:49.618562+00:00",
        "meta_object_name": "STARLINK-35779",
        "meta_object_id": "2025-294T",
        "meta_epoch": "2025-12-20T20:00:01.999008",
        "meta_mean_motion": 15.87298697,
        "meta_eccentricity": 0.000176,
        "meta_inclination": 43.0003,
        "meta_ra_of_asc_node": 132.6021,
        "meta_arg_of_pericenter": 279.1466,
        "meta_mean_anomaly": 80.9711,
        "meta_ephemeris_type": 0,
        "meta_classification_type": "U",
        "meta_norad_cat_id": 67047,
        "meta_element_set_no": 999,
        "meta_rev_at_epoch": 142,
        "meta_bstar": -0.0058673,
        "meta_mean_motion_dot": -0.01392828,
        "meta_mean_motion_ddot": 0,
        "tle_line1": "1 67047U 25294T   25354.83335647 -.01392828  00000+0 -58673-2 0  9999",
        "tle_line2": "2 67047  43.0003 132.6021 0001760 279.1466  80.9711 15.87298697  1425"
      },
      "geometry": {
        "type": "Point",
        "coordinates": [
          -134.14198858930334,
          42.85679604162306
        ]
      }
    },
    {
      "type": "Feature",
      "properties": {
        "norad_id": 67048,
        "name": "STARLINK-35905",
        "group": "last-30-days",
        "lat": 42.70614387523498,
        "lon": -131.53610510724124,
        "alt_km": 307.08434243448846,
        "timestamp": "2025-12-21T03:56:49.618572+00:00",
        "meta_object_name": "STARLINK-35905",
        "meta_object_id": "2025-294U",
        "meta_epoch": "2025-12-20T20:00:01.999008",
        "meta_mean_motion": 15.8734175,
        "meta_eccentricity": 0.000173,
        "meta_inclination": 43.0004,
        "meta_ra_of_asc_node": 132.5972,
        "meta_arg_of_pericenter": 279.7202,
        "meta_mean_anomaly": 82.2707,
        "meta_ephemeris_type": 0,
        "meta_classification_type": "U",
        "meta_norad_cat_id": 67048,
        "meta_element_set_no": 999,
        "meta_rev_at_epoch": 153,
        "meta_bstar": -0.0059002,
        "meta_mean_motion_dot": -0.01402229,
        "meta_mean_motion_ddot": 0,
        "tle_line1": "1 67048U 25294U   25354.83335647 -.01402229  00000+0 -59002-2 0  9994",
        "tle_line2": "2 67048  43.0004 132.5972 0001730 279.7202  82.2707 15.87341750  1533"
      },
      "geometry": {
        "type": "Point",
        "coordinates": [
          -131.53610510724124,
          42.70614387523498
        ]
      }
    },
    {
      "type": "Feature",
      "properties": {
        "norad_id": 67049,
        "name": "STARLINK-35877",
        "group": "last-30-days",
        "lat": 42.43173313921941,
        "lon": -128.26645186021835,
        "alt_km": 307.07792171922665,
        "timestamp": "2025-12-21T03:56:49.618581+00:00",
        "meta_object_name": "STARLINK-35877",
        "meta_object_id": "2025-294V",
        "meta_epoch": "2025-12-20T20:00:01.999008",
        "meta_mean_motion": 15.87370032,
        "meta_eccentricity": 0.0001735,
        "meta_inclination": 43.0006,
        "meta_ra_of_asc_node": 132.5912,
        "meta_arg_of_pericenter": 278.6277,
        "meta_mean_anomaly": 85.7593,
        "meta_ephemeris_type": 0,
        "meta_classification_type": "U",
        "meta_norad_cat_id": 67049,
        "meta_element_set_no": 999,
        "meta_rev_at_epoch": 161,
        "meta_bstar": -0.0059304,
        "meta_mean_motion_dot": -0.0141023,
        "meta_mean_motion_ddot": 0,
        "tle_line1": "1 67049U 25294V   25354.83335647 -.01410230  00000+0 -59304-2 0  9991",
        "tle_line2": "2 67049  43.0006 132.5912 0001735 278.6277  85.7593 15.87370032  1610"
      },
      "geometry": {
        "type": "Point",
        "coordinates": [
          -128.26645186021835,
          42.43173313921941
        ]
      }
    },
    {
      "type": "Feature",
      "properties": {
        "norad_id": 67050,
        "name": "STARLINK-36078",
        "group": "last-30-days",
        "lat": 42.060032983980804,
        "lon": -124.9941045465699,
        "alt_km": 307.02676843472545,
        "timestamp": "2025-12-21T03:56:49.618590+00:00",
        "meta_object_name": "STARLINK-36078",
        "meta_object_id": "2025-294W",
        "meta_epoch": "2025-12-20T20:00:01.999008",
        "meta_mean_motion": 15.87399429,
        "meta_eccentricity": 0.0001661,
        "meta_inclination": 43.0005,
        "meta_ra_of_asc_node": 132.5851,
        "meta_arg_of_pericenter": 278.273,
        "meta_mean_anomaly": 88.5363,
        "meta_ephemeris_type": 0,
        "meta_classification_type": "U",
        "meta_norad_cat_id": 67050,
        "meta_element_set_no": 999,
        "meta_rev_at_epoch": 153,
        "meta_bstar": -0.0059663,
        "meta_mean_motion_dot": -0.01419389,
        "meta_mean_motion_ddot": 0,
        "tle_line1": "1 67050U 25294W   25354.83335647 -.01419389  00000+0 -59663-2 0  9995",
        "tle_line2": "2 67050  43.0005 132.5851 0001661 278.2730  88.5363 15.87399429  1539"
      },
      "geometry": {
        "type": "Point",
        "coordinates": [
          -124.9941045465699,
          42.060032983980804
        ]
      }
    },
    {
      "type": "Feature",
      "properties": {
        "norad_id": 67051,
        "name": "STARLINK-35706",
        "group": "last-30-days",
        "lat": 41.594156305174835,
        "lon": -121.75123873926448,
        "alt_km": 307.08144472149434,
        "timestamp": "2025-12-21T03:56:49.618598+00:00",
        "meta_object_name": "STARLINK-35706",
        "meta_object_id": "2025-294X",
        "meta_epoch": "2025-12-20T20:00:01.999008",
        "meta_mean_motion": 15.87431592,
        "meta_eccentricity": 0.0001713,
        "meta_inclination": 43.0005,
        "meta_ra_of_asc_node": 132.5788,
        "meta_arg_of_pericenter": 278.0529,
        "meta_mean_anomaly": 91.189,
        "meta_ephemeris_type": 0,
        "meta_classification_type": "U",
        "meta_norad_cat_id": 67051,
        "meta_element_set_no": 999,
        "meta_rev_at_epoch": 161,
        "meta_bstar": -0.0060329,
        "meta_mean_motion_dot": -0.01435167,
        "meta_mean_motion_ddot": 0,
        "tle_line1": "1 67051U 25294X   25354.83335647 -.01435167  00000+0 -60329-2 0  9999",
        "tle_line2": "2 67051  43.0005 132.5788 0001713 278.0529  91.1890 15.87431592  1613"
      },
      "geometry": {
        "type": "Point",
        "coordinates": [
          -121.75123873926448,
          41.594156305174835
        ]
      }
    },
    {
      "type": "Feature",
      "properties": {
        "norad_id": 67052,
        "name": "STARLINK-35720",
        "group": "last-30-days",
        "lat": 41.15533312898179,
        "lon": -119.18652468735732,
        "alt_km": 307.06429886368005,
        "timestamp": "2025-12-21T03:56:49.618607+00:00",
        "meta_object_name": "STARLINK-35720",
        "meta_object_id": "2025-294Y",
        "meta_epoch": "2025-12-20T20:00:01.999008",
        "meta_mean_motion": 15.87467097,
        "meta_eccentricity": 0.000172,
        "meta_inclination": 43.0006,
        "meta_ra_of_asc_node": 132.574,
        "meta_arg_of_pericenter": 282.2993,
        "meta_mean_anomaly": 88.8758,
        "meta_ephemeris_type": 0,
        "meta_classification_type": "U",
        "meta_norad_cat_id": 67052,
        "meta_element_set_no": 999,
        "meta_rev_at_epoch": 160,
        "meta_bstar": -0.0060412,
        "meta_mean_motion_dot": -0.01439102,
        "meta_mean_motion_ddot": 0,
        "tle_line1": "1 67052U 25294Y   25354.83335647 -.01439102  00000+0 -60412-2 0  9996",
        "tle_line2": "2 67052  43.0006 132.5740 0001720 282.2993  88.8758 15.87467097  1607"
      },
      "geometry": {
        "type": "Point",
        "coordinates": [
          -119.18652468735732,
          41.15533312898179
        ]
      }
    }
  ]
}